{
  "links" : {
    "next" : "https://api.nasa.gov/neo/rest/v1/feed?start_date=2009-07-23&end_date=2009-07-23&detailed=true&api_key=t0TVs3DtDT2H8Oy2Zy8m2eVrNsAVKAexjcZXUckd",
    "prev" : "https://api.nasa.gov/neo/rest/v1/feed?start_date=2009-07-21&end_date=2009-07-21&detailed=true&api_key=t0TVs3DtDT2H8Oy2Zy8m2eVrNsAVKAexjcZXUckd",
    "self" : "https://api.nasa.gov/neo/rest/v1/feed?start_date=2009-07-22&end_date=2009-07-22&detailed=true&api_key=t0TVs3DtDT2H8Oy2Zy8m2eVrNsAVKAexjcZXUckd"
  },
  "element_count" : 10,
  "near_earth_objects" : {
    "2009-07-22" : [ {
      "links" : {
        "self" : "https://api.nasa.gov/neo/rest/v1/neo/2055532?api_key=t0TVs3DtDT2H8Oy2Zy8m2eVrNsAVKAexjcZXUckd"
      },
      "neo_reference_id" : "2055532",
      "name" : "55532 (2001 WG2)",
      "nasa_jpl_url" : "http://ssd.jpl.nasa.gov/sbdb.cgi?sstr=2055532",
      "absolute_magnitude_h" : 16.0,
      "estimated_diameter" : {
        "kilometers" : {
          "estimated_diameter_min" : 1.6770846216,
          "estimated_diameter_max" : 3.750075218
        },
        "meters" : {
          "estimated_diameter_min" : 1677.0846216284,
          "estimated_diameter_max" : 3750.0752179805
        },
        "miles" : {
          "estimated_diameter_min" : 1.0420917484,
          "estimated_diameter_max" : 2.3301879883
        },
        "feet" : {
          "estimated_diameter_min" : 5502.2463100232,
          "estimated_diameter_max" : 12303.3967781592
        }
      },
      "is_potentially_hazardous_asteroid" : false,
      "close_approach_data" : [ {
        "close_approach_date" : "2009-07-22",
        "epoch_date_close_approach" : 1248246000000,
        "relative_velocity" : {
          "kilometers_per_second" : "34.7264753986",
          "kilometers_per_hour" : "125015.3114350144",
          "miles_per_hour" : "77679.6528191621"
        },
        "miss_distance" : {
          "astronomical" : "0.4289398091",
          "lunar" : "166.8575897217",
          "kilometers" : "64168484",
          "miles" : "39872448"
        },
        "orbiting_body" : "Earth"
      } ],
      "orbital_data" : {
        "orbit_id" : "109",
        "orbit_determination_date" : "2017-09-23 06:50:59",
        "orbit_uncertainty" : "0",
        "minimum_orbit_intersection" : ".337936",
        "jupiter_tisserand_invariant" : "3.560",
        "epoch_osculation" : "2458000.5",
        "eccentricity" : ".6957365201820189",
        "semi_major_axis" : "1.794662740145749",
        "inclination" : "38.50829192872208",
        "ascending_node_longitude" : "81.48559465799801",
        "orbital_period" : "878.1580692310384",
        "perihelion_distance" : ".5460503304164188",
        "perihelion_argument" : "132.3321107624224",
        "aphelion_distance" : "3.04327514987508",
        "perihelion_time" : "2457638.980179907172",
        "mean_anomaly" : "148.2046795372292",
        "mean_motion" : ".4099489745795253",
        "equinox" : "J2000"
      }
    }, {
      "links" : {
        "self" : "https://api.nasa.gov/neo/rest/v1/neo/2309662?api_key=t0TVs3DtDT2H8Oy2Zy8m2eVrNsAVKAexjcZXUckd"
      },
      "neo_reference_id" : "2309662",
      "name" : "309662 (2008 EE)",
      "nasa_jpl_url" : "http://ssd.jpl.nasa.gov/sbdb.cgi?sstr=2309662",
      "absolute_magnitude_h" : 19.8,
      "estimated_diameter" : {
        "kilometers" : {
          "estimated_diameter_min" : 0.2914439045,
          "estimated_diameter_max" : 0.6516883822
        },
        "meters" : {
          "estimated_diameter_min" : 291.4439045349,
          "estimated_diameter_max" : 651.6883821679
        },
        "miles" : {
          "estimated_diameter_min" : 0.1810947904,
          "estimated_diameter_max" : 0.4049402617
        },
        "feet" : {
          "estimated_diameter_min" : 956.1808197541,
          "estimated_diameter_max" : 2138.0853117517
        }
      },
      "is_potentially_hazardous_asteroid" : false,
      "close_approach_data" : [ {
        "close_approach_date" : "2009-07-22",
        "epoch_date_close_approach" : 1248246000000,
        "relative_velocity" : {
          "kilometers_per_second" : "10.9414502303",
          "kilometers_per_hour" : "39389.2208291729",
          "miles_per_hour" : "24474.9300202158"
        },
        "miss_distance" : {
          "astronomical" : "0.2975144564",
          "lunar" : "115.7331314087",
          "kilometers" : "44507532",
          "miles" : "27655698"
        },
        "orbiting_body" : "Earth"
      } ],
      "orbital_data" : {
        "orbit_id" : "80",
        "orbit_determination_date" : "2017-04-06 09:23:56",
        "orbit_uncertainty" : "1",
        "minimum_orbit_intersection" : ".138726",
        "jupiter_tisserand_invariant" : "6.118",
        "epoch_osculation" : "2458000.5",
        "eccentricity" : ".2119744503538123",
        "semi_major_axis" : ".9813412559595676",
        "inclination" : "16.15520761541733",
        "ascending_node_longitude" : "343.5854359575007",
        "orbital_period" : "355.0818816030042",
        "perihelion_distance" : ".7733219826180183",
        "perihelion_argument" : "332.4283668219159",
        "aphelion_distance" : "1.189360529301117",
        "perihelion_time" : "2457883.868730837212",
        "mean_anomaly" : "118.2466892116648",
        "mean_motion" : "1.013850659951426",
        "equinox" : "J2000"
      }
    }, {
      "links" : {
        "self" : "https://api.nasa.gov/neo/rest/v1/neo/3309476?api_key=t0TVs3DtDT2H8Oy2Zy8m2eVrNsAVKAexjcZXUckd"
      },
      "neo_reference_id" : "3309476",
      "name" : "(2005 YA37)",
      "nasa_jpl_url" : "http://ssd.jpl.nasa.gov/sbdb.cgi?sstr=3309476",
      "absolute_magnitude_h" : 22.3,
      "estimated_diameter" : {
        "kilometers" : {
          "estimated_diameter_min" : 0.0921626549,
          "estimated_diameter_max" : 0.2060819612
        },
        "meters" : {
          "estimated_diameter_min" : 92.1626548503,
          "estimated_diameter_max" : 206.0819612321
        },
        "miles" : {
          "estimated_diameter_min" : 0.057267201,
          "estimated_diameter_max" : 0.1280533543
        },
        "feet" : {
          "estimated_diameter_min" : 302.370924539,
          "estimated_diameter_max" : 676.1219416887
        }
      },
      "is_potentially_hazardous_asteroid" : false,
      "close_approach_data" : [ {
        "close_approach_date" : "2009-07-22",
        "epoch_date_close_approach" : 1248246000000,
        "relative_velocity" : {
          "kilometers_per_second" : "5.9533898295",
          "kilometers_per_hour" : "21432.2033860293",
          "miles_per_hour" : "13317.1377095025"
        },
        "miss_distance" : {
          "astronomical" : "0.4062495466",
          "lunar" : "158.0310821533",
          "kilometers" : "60774068",
          "miles" : "37763256"
        },
        "orbiting_body" : "Earth"
      } ],
      "orbital_data" : {
        "orbit_id" : "17",
        "orbit_determination_date" : "2017-04-06 09:09:35",
        "orbit_uncertainty" : "0",
        "minimum_orbit_intersection" : ".0358424",
        "jupiter_tisserand_invariant" : "5.030",
        "epoch_osculation" : "2458000.5",
        "eccentricity" : ".2278039474017514",
        "semi_major_axis" : "1.280048718919291",
        "inclination" : "2.240073037425617",
        "ascending_node_longitude" : "93.08338565919553",
        "orbital_period" : "528.9786888584373",
        "perihelion_distance" : ".9884485678829211",
        "perihelion_argument" : "88.72553249439606",
        "aphelion_distance" : "1.57164886995566",
        "perihelion_time" : "2458060.226200690553",
        "mean_anomaly" : "319.3529329224962",
        "mean_motion" : ".68055671727891",
        "equinox" : "J2000"
      }
    } ]
  }
}